SL-16 R/B               
1 24298U 96051B   26197.63385176  .00000156  00000+0  11128-3 0  9997
2 24298  70.7645 262.3326 0017895 296.2444  63.6836 14.12457066539859
ORBVIEW 2 (SEASTAR)     
1 24883U 97037A   26197.43288969  .00000083  00000+0  45064-4 0  9998
2 24883  98.8714   5.2664 0003060  58.4586 301.6897 14.35567092526944
SL-16 R/B               
1 25400U 98043G   26197.83109221  .00000001  00000+0  19331-4 0  9997
2 25400  98.8379 152.2481 0009939   6.8649 353.2665 14.26072892457392
SL-16 R/B               
1 25407U 98045B   26197.61897865 -.00000129  00000+0 -40940-4 0  9993
2 25407  71.0108 270.4344 0008102 204.4036 155.6705 14.16205074445351
ISS (ZARYA)             
1 25544U 98067A   26197.86314870  .00003748  00000+0  76099-4 0  9998
2 25544  51.6311 153.2312 0006736 304.1301  55.9047 15.49027546576359
CZ-4B R/B               
1 25732U 99025C   26197.63663919 -.00000002  00000+0  19969-4 0  9992
2 25732  98.6471 238.7318 0036565 335.5496 135.3409 14.18287859406444
OKEAN-O                 
1 25860U 99039A   26197.61255097  .00000261  00000+0  40894-4 0  9998
2 25860  97.9301 256.0703 0000873  90.5104 269.6208 14.80498340453468
SL-16 R/B               
1 25861U 99039B   26197.60703564  .00000227  00000+0  35437-4 0  9994
2 25861  97.9823 256.3838 0014422 193.7470 166.3352 14.81871578455955
DELTA 2 R/B             
1 25876U 99041E   26197.83272166  .00001106  00000+0  21640-3 0  9994
2 25876  51.7611 145.3532 0501418   9.5910 351.4176 14.12089241381277
HELIOS 1B               
1 25977U 99064A   26197.63117565  .00000622  00000+0  74037-4 0  9991
2 25977  98.1582 103.6202 0001849  52.7564 307.3820 14.88076999704432
TERRA                   
1 25994U 99068A   26197.88536293  .00000171  00000+0  43683-4 0  9996
2 25994  97.9440 246.2517 0003480 119.2437 353.1464 14.61124440413947
SL-16 R/B               
1 26070U 00006B   26197.38517398 -.00000075  00000+0 -13690-4 0  9996
2 26070  71.0002 187.2308 0017230 338.3421  21.6972 14.15837929366778
TITAN 4B R/B            
1 26474U 00047B   26197.79610618  .00001218  00000+0  80793-4 0  9999
2 26474  67.9873  37.2201 0045791 257.1679 102.4353 15.10337546412407
ENVISAT                 
1 27386U 02009A   26197.86158654  .00000017  00000+0  19309-4 0  9998
2 27386  98.3846 148.5207 0001325  82.9021 300.9180 14.39070925277755
IDEFIX & ARIANE 42P R/B 
1 27422U 02021B   26197.77433167  .00000082  00000+0  47700-4 0  9996
2 27422  98.5941 134.9376 0011994 161.8816 198.2797 14.31094127262480
AQUA                    
1 27424U 02022A   26197.28834417  .00000341  00000+0  77532-4 0  9992
2 27424  98.4296 167.1566 0000983 113.3067  21.1629 14.62197882287525
CZ-4B R/B               
1 27432U 02024C   26197.67498647  .00000000  00000+0  22570-4 0  9991
2 27432  98.8685 250.3011 0050396  17.8203  93.8550 14.14568391247476
MIDORI II (ADEOS-II)    
1 27597U 02056A   26197.46857476  .00000088  00000+0  52509-4 0  9995
2 27597  98.7895 156.9802 0001424  39.5466 320.5819 14.29363387228694
H-2A R/B                
1 27601U 02056E   26197.47009837  .00000113  00000+0  54064-4 0  9999
2 27601  98.3329 153.0798 0070954 137.1643 333.4106 14.33834299232569
CZ-4B R/B               
1 28059U 03049C   26197.59328581  .00000115  00000+0  38120-4 0  9990
2 28059  98.6911 197.6122 0047744 196.9414 163.0189 14.55116581205347
CZ-2C R/B               
1 28222U 04012C   26197.82281370  .00112094  00000+0  46138-3 0  9990
2 28222  97.7045 277.0808 0011035 186.1120 174.0017 15.85560346224585
SL-16 R/B               
1 28353U 04021B   26197.57744234 -.00000064  00000+0 -82895-5 0  9997
2 28353  71.0029 322.0077 0006264 223.9423 136.1202 14.14616508141069
CZ-4B R/B               
1 28415U 04035C   26197.61284841  .00003992  00000+0  13418-3 0  9993
2 28415  97.3353 230.3605 0029345 227.3665 132.5102 15.31003303199625
CZ-2C R/B               
1 28480U 04046B   26197.64065338  .00000062  00000+0  37846-4 0  9995
2 28480  98.1914 104.5765 0140205 133.1461 228.1544 14.27033467126894
ARIANE 5 R/B            
1 28499U 04049H   26197.49885568  .00000199  00000+0  28989-4 0  9995
2 28499  98.2742  10.8890 0082597 293.9956  65.2626 14.85479624164914
CZ-2D R/B               
1 28738U 05024B   26197.51522388  .00044535  00000+0  32896-3 0  9999
2 28738  97.3466 218.4796 0002644 188.6063 171.5155 15.72867505159949
ALOS (DAICHI)           
1 28931U 06002A   26197.83465483  .00000459  00000+0  84718-4 0  9996
2 28931  98.1339 153.3133 0000850 103.2829 256.8472 14.70103628 92451
H-2A R/B                
1 28932U 06002B   26197.51461037  .00004961  00000+0  23675-3 0  9999
2 28932  98.2596 356.0096 0050870 161.5725 198.7365 15.18458470113974
RESURS-DK 1             
1 29228U 06021A   26197.45020316  .00000852  00000+0  53811-4 0  9994
2 29228  69.9306 263.7965 0007178 269.6714  90.3630 15.13321208107009
CZ-4B R/B               
1 29507U 06046C   26197.72041101  .00002203  00000+0  11039-3 0  9993
2 29507  97.5435 242.2371 0032737 176.8615 183.2831 15.17988507 79615
CZ-2C R/B               
1 31114U 07010B   26197.29601245  .00000032  00000+0  34017-4 0  9995
2 31114  98.4121 304.2264 0057758 280.5042  78.9631 14.20281960997979
